[{"OBJECT_NAME":"STARLINK-36433","OBJECT_ID":"2026-012J","EPOCH":"2026-03-09T01:06:17.643456","MEAN_MOTION":15.27575696,"ECCENTRICITY":0.00014614,"INCLINATION":42.9984,"RA_OF_ASC_NODE":318.0099,"ARG_OF_PERICENTER":280.9985,"MEAN_ANOMALY":79.0702,"EPHEMERIS_TYPE":0,"CLASSIFICATION_TYPE":"U","NORAD_CAT_ID":67501,"ELEMENT_SET_NO":999,"REV_AT_EPOCH":766,"BSTAR":0.0015316251,"MEAN_MOTION_DOT":0.00042121,"MEAN_MOTION_DDOT":0},{"OBJECT_NAME":"CZ-2C DEB","OBJECT_ID":"2026-009D","EPOCH":"2026-03-09T18:06:55.672992","MEAN_MOTION":15.16841441,"ECCENTRICITY":0.00999045,"INCLINATION":97.6656,"RA_OF_ASC_NODE":143.8643,"ARG_OF_PERICENTER":42.8877,"MEAN_ANOMALY":318.0091,"EPHEMERIS_TYPE":0,"CLASSIFICATION_TYPE":"U","NORAD_CAT_ID":67587,"ELEMENT_SET_NO":999,"REV_AT_EPOCH":810,"BSTAR":0.0023439167,"MEAN_MOTION_DOT":0.00052682,"MEAN_MOTION_DDOT":0}]
